NORAD_CAT_ID,OBJECT_NAME,OBJECT_TYPE,EPOCH,MEAN_MOTION,ECCENTRICITY,INCLINATION,RA_OF_ASC_NODE,ARG_OF_PERICENTER,MEAN_ANOMALY,BSTAR,MEAN_MOTION_DOT,MEAN_MOTION_DDOT,TLE_LINE0,TLE_LINE1,TLE_LINE2,SEMIMAJOR_AXIS,PERIOD,APOGEE,PERIGEE,DECAYED
56807.0,STARLINK-6073,PAYLOAD,2024-01-19 13:43:31,14.98332148,0.0002663,70.0014,131.2432,251.2488,108.8383,1.544e-05,9.1e-07,0.0,0 STARLINK-6073,1 56807U 23078AS  24019.57188695  .00000091  00000-0  15440-4 0  9999,2 56807  70.0014 131.2432 0002663 251.2488 108.8383 14.98332148 36321,6950.186,96.107,573.902,570.2,0.0
56807.0,STARLINK-6073,PAYLOAD,2024-01-19 16:55:46,14.98334482,0.0002664,70.0008,130.9052,256.6058,103.4804,4.3973e-05,4.32e-06,0.0,0 STARLINK-6073,1 56807U 23078AS  24019.70540464  .00000432  00000-0  43973-4 0  9991,2 56807  70.0008 130.9052 0002664 256.6058 103.4804 14.98334482 36345,6950.179,96.107,573.896,570.193,0.0
56807.0,STARLINK-6073,PAYLOAD,2024-01-20 12:09:24,14.98331084,0.0002761,70.0008,128.8867,261.7172,98.3674,-6.8234e-05,-9.07e-06,0.0,0 STARLINK-6073,1 56807U 23078AS  24020.50652884 -.00000907  00000-0 -68234-4 0  9997,2 56807  70.0008 128.8867 0002761 261.7172  98.3674 14.98331084 36721,6950.19,96.107,573.973,570.136,0.0
56807.0,STARLINK-6073,PAYLOAD,2024-01-20 13:45:32,14.98329378,0.0002833,70.0008,128.7181,264.3315,95.7521,-4.8082e-05,-6.67e-06,0.0,0 STARLINK-6073,1 56807U 23078AS  24020.57328929 -.00000667  00000-0 -48082-4 0  9996,2 56807  70.0008 128.7181 0002833 264.3315  95.7521 14.98329378 36474,6950.195,96.107,574.029,570.091,0.0
56807.0,STARLINK-6073,PAYLOAD,2024-01-20 16:57:48,14.98330915,0.0002766,70.0008,128.3818,262.2032,97.8813,-5.9861e-05,-8.07e-06,0.0,0 STARLINK-6073,1 56807U 23078AS  24020.70680856 -.00000807  00000-0 -59861-4 0  9994,2 56807  70.0008 128.3818 0002766 262.2032  97.8813 14.98330915 36493,6950.19,96.107,573.977,570.133,0.0
56807.0,STARLINK-6073,PAYLOAD,2024-01-21 12:11:24,14.98334734,0.0002839,70.0006,126.3613,264.2965,95.7871,-9.1927e-06,-2.03e-06,0.0,0 STARLINK-6073,1 56807U 23078AS  24021.50792377 -.00000203  00000-0 -91927-5 0  9995,2 56807  70.0006 126.3613 0002839 264.2965  95.7871 14.98334734 36876,6950.178,96.107,574.016,570.07,0.0
56807.0,STARLINK-6073,PAYLOAD,2024-01-21 16:59:48,14.98338328,0.00028,70.0006,125.8565,263.8264,96.2576,3.2976e-05,3.01e-06,0.0,0 STARLINK-6073,1 56807U 23078AS  24021.70819945  .00000301  00000-0  32976-4 0  9993,2 56807  70.0006 125.8565 0002800 263.8264  96.2576 14.98338328 36647,6950.167,96.106,573.978,570.086,0.0
56807.0,STARLINK-6073,PAYLOAD,2024-01-22 12:13:25,14.98326151,0.0002573,70.0013,123.837,257.1163,102.9709,8.6257e-06,1e-07,0.0,0 STARLINK-6073,1 56807U 23078AS  24022.50932674  .00000010  00000-0  86257-5 0  9996,2 56807  70.0013 123.8370 0002573 257.1163 102.9709 14.98326151 37025,6950.205,96.107,573.858,570.282,0.0
56807.0,STARLINK-6073,PAYLOAD,2024-01-22 17:01:48,14.98397397,0.0002241,70.0014,123.3318,244.0456,116.0472,-0.0012479,-0.00014976,0.0,0 STARLINK-6073,1 56807U 23078AS  24022.70959061 -.00014976  00000-0 -12479-2 0  9997,2 56807  70.0014 123.3318 0002241 244.0456 116.0472 14.98397397 37051,6949.984,96.103,573.407,570.292,0.0
56807.0,STARLINK-6073,PAYLOAD,2024-01-23 10:39:18,14.98333578,0.0002856,70.0005,121.4793,265.1315,94.9518,-2.2235e-05,-3.58e-06,0.0,0 STARLINK-6073,1 56807U 23078AS  24023.44396243 -.00000358  00000-0 -22235-4 0  9998,2 56807  70.0005 121.4793 0002856 265.1315  94.9518 14.98333578 37165,6950.182,96.107,574.032,570.062,0.0
56807.0,STARLINK-6073,PAYLOAD,2024-01-23 15:27:42,14.98335787,0.0002651,70.0011,120.9755,256.3779,103.7085,1.9767e-05,1.43e-06,0.0,0 STARLINK-6073,1 56807U 23078AS  24023.64423900  .00000143  00000-0  19767-4 0  9997,2 56807  70.0011 120.9755 0002651 256.3779 103.7085 14.98335787 36939,6950.175,96.107,573.882,570.198,0.0
56807.0,STARLINK-6073,PAYLOAD,2024-01-24 12:17:27,14.98324081,0.0002976,70.0003,118.7862,267.5182,92.5637,-5.0143e-05,-6.91e-06,0.0,0 STARLINK-6073,1 56807U 23078AS  24024.51212899 -.00000691  00000-0 -50143-4 0  9990,2 56807  70.0003 118.7862 0002976 267.5182  92.5637 14.98324081 37323,6950.211,96.107,574.145,570.008,0.0
56807.0,STARLINK-6073,PAYLOAD,2024-01-24 13:53:35,14.98326945,0.0003063,69.9997,118.6169,269.6754,90.4054,-2.7769e-05,-4.24e-06,0.0,0 STARLINK-6073,1 56807U 23078AS  24024.57888709 -.00000424  00000-0 -27769-4 0  9997,2 56807  69.9997 118.6169 0003063 269.6754  90.4054 14.98326945 37070,6950.202,96.107,574.196,569.938,0.0
56807.0,STARLINK-6073,PAYLOAD,2024-01-24 15:29:43,14.98326435,0.0002909,70.0002,118.4494,266.9779,93.1048,-1.6229e-05,-2.87e-06,0.0,0 STARLINK-6073,1 56807U 23078AS  24024.64564687 -.00000287  00000-0 -16229-4 0  9997,2 56807  70.0002 118.4494 0002909 266.9779  93.1048 14.98326435 37082,6950.204,96.107,574.091,570.047,0.0
56807.0,STARLINK-6073,PAYLOAD,2024-01-25 12:19:28,14.98327834,0.0002946,70.0,116.2606,267.134,92.9482,-8.3223e-05,-1.086e-05,0.0,0 STARLINK-6073,1 56807U 23078AS  24025.51352991 -.00001086  00000-0 -83223-4 0  9993,2 56807  70.0000 116.2606 0002946 267.1340  92.9482 14.98327834 37475,6950.2,96.107,574.112,570.017,0.0
56807.0,STARLINK-6073,PAYLOAD,2024-01-25 13:55:36,14.98330602,0.0002792,70.0002,116.0936,262.9483,97.1358,-4.6739e-05,-6.51e-06,0.0,0 STARLINK-6073,1 56807U 23078AS  24025.58028691 -.00000651  00000-0 -46739-4 0  9995,2 56807  70.0002 116.0936 0002792 262.9483  97.1358 14.98330602 37220,6950.191,96.107,573.997,570.116,0.0
56807.0,STARLINK-6073,PAYLOAD,2024-01-25 15:31:44,14.9833369,0.0002988,70.0,115.9237,268.9532,91.1285,-1.9269e-05,-3.23e-06,0.0,0 STARLINK-6073,1 56807U 23078AS  24025.64704415 -.00000323  00000-0 -19269-4 0  9991,2 56807  70.0000 115.9237 0002988 268.9532  91.1285 14.98333690 37490,6950.181,96.107,574.123,569.97,0.0
56807.0,STARLINK-6073,PAYLOAD,2024-01-26 13:57:37,14.98332943,0.0002612,70.0005,113.5686,258.7865,101.3,0.00011694,1.303e-05,0.0,0 STARLINK-6073,1 56807U 23078AS  24026.58168040  .00001303  00000-0  11694-3 0  9993,2 56807  70.0005 113.5686 0002612 258.7865 101.3000 14.98332943 37373,6950.184,96.107,573.864,570.233,0.0
56807.0,STARLINK-6073,PAYLOAD,2024-01-26 15:33:45,14.98333405,0.0002627,70.0004,113.4003,260.4369,99.6493,0.00011885,1.326e-05,0.0,0 STARLINK-6073,1 56807U 23078AS  24026.64843998  .00001326  00000-0  11885-3 0  9999,2 56807  70.0004 113.4003 0002627 260.4369  99.6493 14.98333405 37648,6950.182,96.107,573.873,570.222,0.0
56807.0,STARLINK-6073,PAYLOAD,2024-01-27 12:23:30,14.98326867,0.0002598,70.0008,111.2123,252.2023,107.8852,-3.0612e-05,-4.58e-06,0.0,0 STARLINK-6073,1 56807U 23078AS  24027.51632761 -.00000458  00000-0 -30612-4 0  9997,2 56807  70.0008 111.2123 0002598 252.2023 107.8852 14.98326867 37773,6950.203,96.107,573.873,570.262,0.0
56807.0,STARLINK-6073,PAYLOAD,2024-01-27 13:59:38,14.98326525,0.0002599,70.0007,111.0439,252.7682,107.3193,-3.4431e-05,-5.04e-06,0.0,0 STARLINK-6073,1 56807U 23078AS  24027.58308805 -.00000504  00000-0 -34431-4 0  9998,2 56807  70.0007 111.0439 0002599 252.7682 107.3193 14.98326525 37524,6950.204,96.107,573.875,570.262,0.0
56807.0,STARLINK-6073,PAYLOAD,2024-01-27 15:35:46,14.98326345,0.00026,70.0006,110.8753,255.5005,104.5865,-3.5566e-05,-5.17e-06,0.0,0 STARLINK-6073,1 56807U 23078AS  24027.64984840 -.00000517  00000-0 -35566-4 0  9998,2 56807  70.0006 110.8753 0002600 255.5005 104.5865 14.98326345 37538,6950.204,96.107,573.876,570.262,0.0
56807.0,STARLINK-6073,PAYLOAD,2024-01-28 14:01:39,14.98327157,0.0002701,70.0006,108.5192,256.4891,103.5967,-5.3199e-05,-7.28e-06,0.0,0 STARLINK-6073,1 56807U 23078AS  24028.58448861 -.00000728  00000-0 -53199-4 0  9996,2 56807  70.0006 108.5192 0002701 256.4891 103.5967 14.98327157 37673,6950.202,96.107,573.944,570.189,0.0
56807.0,STARLINK-6073,PAYLOAD,2024-01-28 15:37:47,14.98328811,0.0002648,70.0006,108.3507,255.1488,104.9378,-8.4345e-05,-1.099e-05,0.0,0 STARLINK-6073,1 56807U 23078AS  24028.65124849 -.00001099  00000-0 -84345-4 0  9990,2 56807  70.0006 108.3507 0002648 255.1488 104.9378 14.98328811 37948,6950.197,96.107,573.902,570.221,0.0
56807.0,STARLINK-6073,PAYLOAD,2024-01-29 04:26:51,14.98333804,0.0002976,69.9999,107.0026,268.1605,91.9214,6.896e-05,7.3e-06,0.0,0 STARLINK-6073,1 56807U 23078AS  24029.18532038  .00000730  00000-0  68960-4 0  9996,2 56807  69.9999 107.0026 0002976 268.1605  91.9214 14.98333804 38029,6950.181,96.107,574.115,569.978,0.0
56807.0,STARLINK-6073,PAYLOAD,2024-01-29 12:27:31,14.98336064,0.0002925,70.0,106.161,267.6244,92.458,9.218e-05,1.007e-05,0.0,0 STARLINK-6073,1 56807U 23078AS  24029.51911732  .00001007  00000-0  92180-4 0  9994,2 56807  70.0000 106.1610 0002925 267.6244  92.4580 14.98336064 37810,6950.174,96.107,574.072,570.006,0.0
56807.0,STARLINK-6073,PAYLOAD,2024-01-30 10:53:25,14.98327212,0.0002886,69.9997,103.8041,266.6542,93.4287,-8.0527e-06,-1.89e-06,0.0,0 STARLINK-6073,1 56807U 23078AS  24030.45376510 -.00000189  00000-0 -80527-5 0  9993,2 56807  69.9997 103.8041 0002886 266.6542  93.4287 14.98327212 38215,6950.202,96.107,574.072,570.061,0.0
56807.0,STARLINK-6073,PAYLOAD,2024-01-30 14:05:41,14.98326972,0.0003076,69.9995,103.4675,269.2592,90.8215,-3.4409e-06,-1.34e-06,0.0,0 STARLINK-6073,1 56807U 23078AS  24030.58728526 -.00000134  00000-0 -34409-5 0  9993,2 56807  69.9995 103.4675 0003076 269.2592  90.8215 14.98326972 37974,6950.202,96.107,574.205,569.929,0.0
56807.0,STARLINK-6073,PAYLOAD,2024-01-31 12:31:33,14.98346196,0.0002868,70.0,101.1117,260.3568,99.7267,-0.00027838,-3.414e-05,0.0,0 STARLINK-6073,1 56807U 23078AS  24031.52191941 -.00003414  00000-0 -27838-3 0  9993,2 56807  70.0000 101.1117 0002868 260.3568  99.7267 14.98346196 38373,6950.143,96.106,574.001,570.015,0.0
56807.0,STARLINK-6073,PAYLOAD,2024-02-01 10:57:26,14.98327917,0.0002816,69.9999,98.7556,260.0625,100.0216,4.0306e-05,3.88e-06,0.0,0 STARLINK-6073,1 56807U 23078AS  24032.45656199  .00000388  00000-0  40306-4 0  9998,2 56807  69.9999  98.7556 0002816 260.0625 100.0216 14.98327917 38515,6950.199,96.107,574.022,570.107,0.0
